     2.10           G: GLONASS NAV DATA                     RINEX VERSION / TYPE
teqc  2015Jun23                         20211129 01:25:48UTCPGM / RUN BY / DATE
Linux 2.4.21-27.ELsmp|Opteron|gcc -static|Linux x86_64|=+   COMMENT
  2021    11     5    4.656612873077D-10                    CORR TO SYSTEM TIME
                                                            END OF HEADER
20 21 11  6  1 45  0.0-5.882233381271D-05-0.000000000000D+00 5.400000000000D+03
   -1.515684619141D+04 7.506723403931D-01-6.519258022308D-09 0.000000000000D+00
    1.901708154297D+04-7.920198440552D-01-0.000000000000D+00 2.000000000000D+00
   -7.742540527344D+03-3.406905174255D+00-1.862645149231D-09 0.000000000000D+00
21 21 11  6  1 45  0.0-2.523651346564D-04-2.728484105319D-12 5.400000000000D+03
   -6.016172363281D+03-5.901889801025D-01-1.862645149231D-09 0.000000000000D+00
    2.185816943359D+04 1.500757217407D+00-1.862645149231D-09 4.000000000000D+00
    1.166003466797D+04-3.121854782104D+00-2.793967723846D-09 0.000000000000D+00
22 21 11  6  1 45  0.0-1.434246078134D-04-1.818989403546D-12 7.110000000000D+03
    4.658539550781D+03-1.408194541931D+00 1.862645149231D-09 0.000000000000D+00
    1.185825195312D+04 2.687005996704D+00-1.862645149231D-09-3.000000000000D+00
    2.210498095703D+04-1.136170387268D+00-1.862645149231D-09 0.000000000000D+00
 7 21 11  6  2 15  0.0-4.015956073999D-05 0.000000000000D+00 7.200000000000D+03
    5.156069824219D+03-1.337672233582D+00 0.000000000000D+00 0.000000000000D+00
    1.875993701172D+04-1.823664665222D+00-2.793967723846D-09 5.000000000000D+00
    1.655555664062D+04 2.482560157776D+00-1.862645149231D-09 0.000000000000D+00
 8 21 11  6  2 15  0.0-6.184540688992D-05 0.000000000000D+00 7.200000000000D+03
    1.552903710938D+04-3.243446350098D-03 0.000000000000D+00 0.000000000000D+00
    2.019927490234D+04-2.653627395630D-01-3.725290298462D-09 6.000000000000D+00
    1.565387207031D+03 3.560018539429D+00 0.000000000000D+00 0.000000000000D+00
 9 21 11  6  2 15  0.0 2.205651253462D-05 2.728484105319D-12 7.200000000000D+03
   -2.149644726562D+04-1.376402854919D+00-6.519258022308D-09 0.000000000000D+00
    9.091632324219D+03 3.561964035034D-01 2.793967723846D-09-2.000000000000D+00
   -1.035545068359D+04 3.157351493835D+00-1.862645149231D-09 0.000000000000D+00
10 21 11  6  2 15  0.0-7.676146924496D-05-0.000000000000D+00 7.200000000000D+03
   -7.283769042969D+03-2.880836486816D+00-5.587935447693D-09 0.000000000000D+00
    1.171741894531D+04 5.715751647949D-01 9.313225746155D-10-7.000000000000D+00
   -2.144157763672D+04 1.298027992249D+00 0.000000000000D+00 0.000000000000D+00
20 21 11  6  2 15  0.0-5.882326513529D-05-0.000000000000D+00 7.200000000000D+03
   -1.361514746094D+04 9.172258377075D-01-6.519258022308D-09 0.000000000000D+00
    1.683873437500D+04-1.623509407043D+00 9.313225746155D-10 2.000000000000D+00
   -1.349688281250D+04-2.945301055908D+00-9.313225746155D-10 0.000000000000D+00
21 21 11  6  2 15  0.0-2.523707225919D-04-2.728484105319D-12 7.200000000000D+03
   -6.583580566406D+03-6.750392913818D-02-3.725290298462D-09 0.000000000000D+00
    2.396648486328D+04 8.069257736206D-01-9.313225746155D-10 4.000000000000D+00
    5.661811523438D+03-3.499500274658D+00-2.793967723846D-09 0.000000000000D+00
22 21 11  6  2 15  0.0-1.434283331037D-04-1.818989403546D-12 7.230000000000D+03
    2.632433593750D+03-8.396606445312D-01 0.000000000000D+00 0.000000000000D+00
    1.657639257812D+04 2.504096984863D+00-1.862645149231D-09-3.000000000000D+00
    1.923283300781D+04-2.034202575684D+00-1.862645149231D-09 0.000000000000D+00
 8 21 11  6  2 45  0.0-6.184540688992D-05 0.000000000000D+00 9.000000000000D+03
    1.494489208984D+04-6.677589416504D-01-0.000000000000D+00 0.000000000000D+00
    1.916987744141D+04-8.432970046997D-01-3.725290298462D-09 6.000000000000D+00
    7.830480468750D+03 3.356156349182D+00-0.000000000000D+00 0.000000000000D+00
 9 21 11  6  2 45  0.0 2.206116914749D-05 2.728484105319D-12 9.000000000000D+03
   -2.322056103516D+04-5.325756072998D-01-4.656612873077D-09 0.000000000000D+00
    9.711694335938D+03 2.923145294189D-01 3.725290298462D-09-2.000000000000D+00
   -4.346362792969D+03 3.476158142090D+00-2.793967723846D-09 0.000000000000D+00
 7 21 11  6  2 45  0.0-4.015862941742D-05 0.000000000000D+00 9.000000000000D+03
    2.172986328125D+03-1.966152191162D+00 0.000000000000D+00 0.000000000000D+00
    1.531307177734D+04-1.959353446960D+00-1.862645149231D-09 5.000000000000D+00
    2.032950830078D+04 1.683593750000D+00-2.793967723846D-09 0.000000000000D+00
10 21 11  6  2 45  0.0-7.676333189011D-05-0.000000000000D+00 9.000000000000D+03
   -1.203737158203D+04-2.361895561218D+00-5.587935447693D-09 0.000000000000D+00
    1.302315087891D+04 8.489904403687D-01 2.793967723846D-09-7.000000000000D+00
   -1.830515283203D+04 2.164402961731D+00-0.000000000000D+00 0.000000000000D+00
20 21 11  6  2 45  0.0-5.882419645786D-05-0.000000000000D+00 9.000000000000D+03
   -1.201361865234D+04 8.207015991211D-01-5.587935447693D-09 0.000000000000D+00
    1.322588769531D+04-2.366291999817D+00 2.793967723846D-09 2.000000000000D+00
   -1.820858740234D+04-2.255892753601D+00-0.000000000000D+00 0.000000000000D+00
21 21 11  6  2 45  0.0-2.523763105273D-04-3.637978807092D-12 9.000000000000D+03
   -6.380115722656D+03 2.549209594727D-01-5.587935447693D-09 0.000000000000D+00
    2.466598730469D+04-4.783058166504D-02 0.000000000000D+00 4.000000000000D+00
   -7.750937500000D+02-3.606072425842D+00-1.862645149231D-09 0.000000000000D+00
22 21 11  6  2 45  0.0-1.434339210391D-04-1.818989403546D-12 9.000000000000D+03
    1.613698730469D+03-3.075523376465D-01-9.313225746155D-10 0.000000000000D+00
    2.069462060547D+04 2.025459289551D+00-1.862645149231D-09-3.000000000000D+00
    1.487690820312D+04-2.774224281311D+00-2.793967723846D-09 0.000000000000D+00
21 21 11  6  3 15  0.0-2.523818984628D-04-3.637978807092D-12 1.080000000000D+04
   -5.815430664062D+03 3.296279907227D-01-5.587935447693D-09 0.000000000000D+00
    2.376433544922D+04-9.521951675415D-01 1.862645149231D-09 4.000000000000D+00
   -7.151930664062D+03-3.433184623718D+00-1.862645149231D-09 0.000000000000D+00
 8 21 11  6  3 15  0.0-6.184540688992D-05 0.000000000000D+00 1.080000000000D+04
    1.307668017578D+04-1.412399291992D+00-0.000000000000D+00 0.000000000000D+00
    1.730699511719D+04-1.183329582214D+00-2.793967723846D-09 6.000000000000D+00
    1.349218994141D+04 2.894021034241D+00-9.313225746155D-10 0.000000000000D+00
 7 21 11  6  3 15  0.0-4.015676677227D-05 0.000000000000D+00 1.080000000000D+04
   -1.850911132812D+03-2.476528167725D+00 0.000000000000D+00 0.000000000000D+00
    1.186810693359D+04-1.826769828796D+00-9.313225746155D-10 5.000000000000D+00
    2.253836035156D+04 7.547388076782D-01-2.793967723846D-09 0.000000000000D+00
 9 21 11  6  3 15  0.0 2.206582576036D-05 2.728484105319D-12 1.080000000000D+04
   -2.342395654297D+04 2.943687438965D-01-3.725290298462D-09 0.000000000000D+00
    1.000034863281D+04-9.452819824219D-03 4.656612873077D-09-2.000000000000D+00
    1.997559570312D+03 3.527058601379D+00-3.725290298462D-09 0.000000000000D+00
10 21 11  6  3 15  0.0-7.676426321268D-05-0.000000000000D+00 1.080000000000D+04
   -1.567252587891D+04-1.653770446777D+00-5.587935447693D-09 0.000000000000D+00
    1.464445458984D+04 9.121189117432D-01 4.656612873077D-09-7.000000000000D+00
   -1.375007421875D+04 2.863960266113D+00-1.862645149231D-09 0.000000000000D+00
20 21 11  6  3 15  0.0-5.882512778044D-05-0.000000000000D+00 1.080000000000D+04
   -1.079309521484D+04 5.046892166138D-01-4.656612873077D-09 0.000000000000D+00
    8.439180664062D+03-2.911540985107D+00 3.725290298462D-09 2.000000000000D+00
   -2.151295996094D+04-1.391713142395D+00 0.000000000000D+00 0.000000000000D+00
22 21 11  6  3 15  0.0-1.434376463294D-04-1.818989403546D-12 1.080000000000D+04
    1.440772460938D+03 8.470153808594D-02-2.793967723846D-09 0.000000000000D+00
    2.372128906250D+04 1.303518295288D+00-9.313225746155D-10-3.000000000000D+00
    9.374630859375D+03-3.299792289734D+00-2.793967723846D-09 0.000000000000D+00
21 21 11  6  3 45  0.0-2.523884177208D-04-2.728484105319D-12 1.260000000000D+04
   -5.344065917969D+03 1.548767089844D-01-5.587935447693D-09 0.000000000000D+00
    2.128103515625D+04-1.785317420959D+00 3.725290298462D-09 4.000000000000D+00
   -1.297453466797D+04-2.994288444519D+00-9.313225746155D-10 0.000000000000D+00
 8 21 11  6  3 45  0.0-6.184447556734D-05 0.000000000000D+00 1.260000000000D+04
    9.878756835938D+03-2.126234054565D+00-0.000000000000D+00 0.000000000000D+00
    1.506954345703D+04-1.258810997009D+00-2.793967723846D-09 6.000000000000D+00
    1.811523632812D+04 2.209583282471D+00-1.862645149231D-09 0.000000000000D+00
 9 21 11  6  3 45  0.0 2.207048237324D-05 2.728484105319D-12 1.260000000000D+04
   -2.223595312500D+04 9.968709945679D-01-9.313225746155D-10 0.000000000000D+00
    9.556217773438D+03-5.123548507690D-01 3.725290298462D-09-2.000000000000D+00
    8.187739746094D+03 3.306475639343D+00-3.725290298462D-09 0.000000000000D+00
10 21 11  6  3 45  0.0-7.676612585783D-05-0.000000000000D+00 1.260000000000D+04
   -1.794007470703D+04-8.612070083618D-01-4.656612873077D-09 0.000000000000D+00
    1.615331054688D+04 7.209854125977D-01 5.587935447693D-09-7.000000000000D+00
   -8.128227539062D+03 3.341877937317D+00-2.793967723846D-09 0.000000000000D+00
22 21 11  6  3 45  0.0-1.434404402971D-04-9.094947017729D-13 1.260000000000D+04
    1.788300781250D+03 2.611122131348D-01-4.656612873077D-09 0.000000000000D+00
    2.529510498047D+04 4.287452697754D-01 9.313225746155D-10-3.000000000000D+00
    3.150652832031D+03-3.571020126343D+00-1.862645149231D-09 0.000000000000D+00
23 21 11  6  3 45  0.0-1.903157681227D-05-9.094947017729D-13 1.380000000000D+04
    9.329691894531D+03 1.634206771851D-01 0.000000000000D+00 0.000000000000D+00
    1.198983447266D+04 2.808596611023D+00-2.793967723846D-09 3.000000000000D+00
    2.048409619141D+04-1.718570709229D+00-1.862645149231D-09 0.000000000000D+00
